{
  "norad_id": 56786,
  "name": "STARLINK-6341",
  "history": [
    {
      "epoch": "2026-03-28T20:38:08.251872Z",
      "apogee_km": 574.0159298934796,
      "perigee_km": 570.0864324995955,
      "latitude_deg": -9.129778574189452e-06,
      "longitude_deg": 140.36640295785747,
      "height_km": 574.4468262658274,
      "semi_major_axis_km": 6950.188181196538,
      "eccentricity": 0.00028269,
      "inclination_deg": 69.9979,
      "raan_deg": 276.175,
      "arg_perigee_deg": 270.9182,
      "mean_anomaly_deg": 89.1653,
      "mean_motion_rev_day": 14.98331523
    }
  ]
}